{
  "type": "FeatureCollection",
  "features": [
    {"type":"Feature","properties":{"layer":"pipelines","name":"Trans-Anatolian Gas Pipeline","country":"Turkey","status":"Operating","source":"GEM seed","updatedAt":"May 2026"},"geometry":{"type":"LineString","coordinates":[[40,40],[34,39],[28,40],[21,41]]}},
    {"type":"Feature","properties":{"layer":"pipelines","name":"Power of Siberia","country":"Russia / China","status":"Operating","source":"GEM seed","updatedAt":"May 2026"},"geometry":{"type":"LineString","coordinates":[[112,58],[118,53],[123,49],[126,45],[129,43]]}},
    {"type":"Feature","properties":{"layer":"pipelines","name":"US Gulf Coast Pipeline Corridor","country":"United States","status":"Operating","source":"GEM seed","updatedAt":"May 2026"},"geometry":{"type":"LineString","coordinates":[[-101,31],[-96,30],[-91,30],[-86,31]]}},
    {"type":"Feature","properties":{"layer":"shipping-traffic","name":"Middle East to North Asia Tanker Lane","country":"Global","status":"Active","source":"CERGO curated","updatedAt":"May 2026"},"geometry":{"type":"LineString","coordinates":[[51,25],[64,19],[80,8],[103,2],[121,22],[139,35]]}},
    {"type":"Feature","properties":{"layer":"shipping-traffic","name":"Atlantic LNG Corridor","country":"Global","status":"Active","source":"CERGO curated","updatedAt":"May 2026"},"geometry":{"type":"LineString","coordinates":[[-94,29],[-69,34],[-45,42],[-21,49],[-5,51]]}},
    {"type":"Feature","properties":{"layer":"trade-routes","name":"Brazil Iron Ore Route","country":"Brazil / China","status":"Active","source":"CERGO curated","updatedAt":"May 2026"},"geometry":{"type":"LineString","coordinates":[[-44,-20],[-20,-28],[20,-32],[58,-20],[103,5],[122,31]]}},
    {"type":"Feature","properties":{"layer":"trade-routes","name":"Australia LNG to North Asia","country":"Australia / Japan","status":"Active","source":"CERGO curated","updatedAt":"May 2026"},"geometry":{"type":"LineString","coordinates":[[116,-20],[124,-8],[130,9],[136,24],[140,36]]}},
    {"type":"Feature","properties":{"layer":"sanctioned-countries","name":"Russia Sanctions Overlay","country":"Russia","status":"Sectoral / major targeted restrictions","source":"OFAC/EU model seed","updatedAt":"May 2026"},"geometry":{"type":"Polygon","coordinates":[[[30,70],[58,73],[103,72],[143,64],[158,53],[132,45],[88,49],[55,51],[34,58],[30,70]]]}},
    {"type":"Feature","properties":{"layer":"sanctioned-countries","name":"Iran Sanctions Overlay","country":"Iran","status":"Broad restrictions","source":"OFAC/EU model seed","updatedAt":"May 2026"},"geometry":{"type":"Polygon","coordinates":[[[44,39],[53,39],[62,35],[61,28],[54,25],[47,27],[44,32],[44,39]]]}},
    {"type":"Feature","properties":{"layer":"lng-terminals","name":"Sabine Pass LNG","country":"United States","status":"Operating","capacity":"30 mtpa","commodity":"LNG export","source":"GEM seed","updatedAt":"May 2026"},"geometry":{"type":"Point","coordinates":[[-93.9,29.8]]}},
    {"type":"Feature","properties":{"layer":"lng-terminals","name":"Qatargas Ras Laffan","country":"Qatar","status":"Operating","capacity":"77 mtpa","commodity":"LNG export","source":"GEM seed","updatedAt":"May 2026"},"geometry":{"type":"Point","coordinates":[[51.5,25.9]]}},
    {"type":"Feature","properties":{"layer":"lng-terminals","name":"Ichthys LNG","country":"Australia","status":"Operating","capacity":"8.9 mtpa","commodity":"LNG export","source":"GEM seed","updatedAt":"May 2026"},"geometry":{"type":"Point","coordinates":[[130.8,-12.5]]}},
    {"type":"Feature","properties":{"layer":"mining-sites","name":"Escondida Copper Mine","country":"Chile","status":"Operating","commodity":"Copper","source":"USGS/CERGO seed","updatedAt":"May 2026"},"geometry":{"type":"Point","coordinates":[[-69.1,-24.3]]}},
    {"type":"Feature","properties":{"layer":"mining-sites","name":"Pilbara Iron Ore District","country":"Australia","status":"Operating","commodity":"Iron ore","source":"USGS/CERGO seed","updatedAt":"May 2026"},"geometry":{"type":"Point","coordinates":[[118.6,-22.4]]}},
    {"type":"Feature","properties":{"layer":"critical-minerals","name":"Greenbushes Lithium","country":"Australia","status":"Operating","commodity":"Lithium","source":"CERGO curated","updatedAt":"May 2026"},"geometry":{"type":"Point","coordinates":[[116.1,-33.8]]}},
    {"type":"Feature","properties":{"layer":"critical-minerals","name":"Kamoa-Kakula Copper Complex","country":"DR Congo","status":"Operating","commodity":"Copper","source":"CERGO curated","updatedAt":"May 2026"},"geometry":{"type":"Point","coordinates":[[25.4,-10.8]]}},
    {"type":"Feature","properties":{"layer":"chokepoints","name":"Strait of Hormuz","country":"Oman / Iran","status":"Active","relevance":"Crude and LNG transit","source":"CERGO curated","updatedAt":"May 2026"},"geometry":{"type":"Point","coordinates":[[56.6,26.6]]}},
    {"type":"Feature","properties":{"layer":"chokepoints","name":"Suez Canal","country":"Egypt","status":"Active","relevance":"Europe-Asia energy and goods transit","source":"CERGO curated","updatedAt":"May 2026"},"geometry":{"type":"Point","coordinates":[[32.5,30.6]]}},
    {"type":"Feature","properties":{"layer":"chokepoints","name":"Strait of Malacca","country":"Malaysia / Indonesia","status":"Active","relevance":"Asia crude, LNG, and bulk trade","source":"CERGO curated","updatedAt":"May 2026"},"geometry":{"type":"Point","coordinates":[[101.1,2.6]]}},
    {"type":"Feature","properties":{"layer":"processing-plants","name":"Jubail Industrial City","country":"Saudi Arabia","status":"Operating","commodity":"Petrochemicals","source":"CERGO curated","updatedAt":"May 2026"},"geometry":{"type":"Point","coordinates":[[49.6,27.0]]}},
    {"type":"Feature","properties":{"layer":"processing-plants","name":"Rotterdam Refining Cluster","country":"Netherlands","status":"Operating","commodity":"Oil products","source":"CERGO curated","updatedAt":"May 2026"},"geometry":{"type":"Point","coordinates":[[4.1,51.9]]}},
    {"type":"Feature","properties":{"layer":"commodity-ports","name":"Port of Qingdao","country":"China","status":"Operating","commodity":"Iron ore and crude","source":"NGA WPI seed","updatedAt":"May 2026"},"geometry":{"type":"Point","coordinates":[[120.3,36.1]]}},
    {"type":"Feature","properties":{"layer":"commodity-ports","name":"Port of Santos","country":"Brazil","status":"Operating","commodity":"Agriculture and oil products","source":"NGA WPI seed","updatedAt":"May 2026"},"geometry":{"type":"Point","coordinates":[[-46.3,-23.9]]}},
    {"type":"Feature","properties":{"layer":"commodity-hubs","name":"Cushing Hub","country":"United States","status":"Operating","commodity":"WTI crude benchmark","source":"CERGO curated","updatedAt":"May 2026"},"geometry":{"type":"Point","coordinates":[[-96.8,35.99]]}},
    {"type":"Feature","properties":{"layer":"commodity-hubs","name":"Singapore Oil Hub","country":"Singapore","status":"Operating","commodity":"Oil products and bunkering","source":"CERGO curated","updatedAt":"May 2026"},"geometry":{"type":"Point","coordinates":[[103.8,1.3]]}}
  ]
}
